KUIPER-00176            
1 65788U 25217AC  25354.58336806  .00016031  00000+0  17943-2 0  9995
2 65788  51.8983  33.2161 0004975 348.9099 103.1349 14.86995517  5565
KUIPER-00101            
1 65947U 25228A   25354.58336806 -.00042028  00000+0 -50102-2 0  9995
2 65947  51.8990 350.5386 0003546  63.8787  41.3433 14.83939462  5004
KUIPER-00113            
1 65948U 25228B   25354.58336806 -.00036901  00000+0 -29263-2 0  9993
2 65948  51.8903 346.7677 0006439  59.0402 334.3388 15.00016818  5470
KUIPER-00117            
1 65949U 25228C   25354.58336806 -.00042704  00000+0 -43448-2 0  9993
2 65949  51.8988 348.3952 0010099  40.5958 252.0467 14.90335211  5682
KUIPER-00121            
1 65950U 25228D   25354.58336806 -.01147014  00000+0 -67238-1 0  9998
2 65950  51.8840 344.8223 0006554  56.2989 325.7357 15.14216978  1308
KUIPER-00122            
1 65951U 25228E   25354.58336806 -.00052365  00000+0 -68620-2 0  9999
2 65951  51.8992 352.8635 0000685  64.8784 319.3068 14.80125167  4346
KUIPER-00123            
1 65952U 25228F   25354.58336806 -.00049118  00000+0 -65503-2 0  9999
2 65952  51.8992 352.8864 0003282  90.5645 114.0533 14.79352238  4884
KUIPER-00124            
1 65953U 25228G   25354.58336806 -.00077294  00000+0 -65514-2 0  9998
2 65953  51.8943 345.9910 0005003  57.0542 127.2172 14.97836977  4627
